NORAD_CAT_ID,OBJECT_NAME,OBJECT_TYPE,EPOCH,MEAN_MOTION,ECCENTRICITY,INCLINATION,RA_OF_ASC_NODE,ARG_OF_PERICENTER,MEAN_ANOMALY,BSTAR,MEAN_MOTION_DOT,MEAN_MOTION_DDOT,TLE_LINE0,TLE_LINE1,TLE_LINE2,SEMIMAJOR_AXIS,PERIOD,APOGEE,PERIGEE,DECAYED
54170.0,STARLINK-5155,PAYLOAD,2023-10-22 17:32:36,15.08837838,0.0001628,53.218,305.0797,88.5046,271.6133,1.3777e-05,-6.9e-07,0.0,0 STARLINK-5155,1 54170U 22141P   23295.73097452 -.00000069  00000-0  13777-4 0  9990,2 54170  53.2180 305.0797 0001628  88.5046 271.6133 15.08837838 54673,6917.887,95.438,540.878,538.626,0.0
54170.0,STARLINK-5155,PAYLOAD,2023-10-23 04:40:18,15.08829326,0.0001843,53.2195,303.0014,104.9308,255.1888,-2.7105e-05,-7.19e-06,0.0,0 STARLINK-5155,1 54170U 22141P   23296.19466171 -.00000719  00000-0 -27105-4 0  9992,2 54170  53.2195 303.0014 0001843 104.9308 255.1888 15.08829326 54736,6917.913,95.438,541.053,538.503,0.0
54170.0,STARLINK-5155,PAYLOAD,2023-10-23 17:23:23,15.08843138,0.0001428,53.2173,300.6182,89.8782,270.2374,0.00011084,1.477e-05,0.0,0 STARLINK-5155,1 54170U 22141P   23296.72457516  .00001477  00000-0  11084-3 0  9992,2 54170  53.2173 300.6182 0001428  89.8782 270.2374 15.08843138 54811,6917.871,95.437,540.724,538.748,0.0
54170.0,STARLINK-5155,PAYLOAD,2023-10-24 04:31:04,15.08862065,0.0001227,53.2183,298.5341,74.9417,285.1711,0.00015191,2.132e-05,0.0,0 STARLINK-5155,1 54170U 22141P   23297.18824141  .00002132  00000-0  15191-3 0  9997,2 54170  53.2183 298.5341 0001227  74.9417 285.1711 15.08862065 54888,6917.813,95.436,540.527,538.829,0.0
54170.0,STARLINK-5155,PAYLOAD,2023-10-24 07:41:50,15.08866242,0.0001414,53.2171,297.9416,88.3402,271.7752,0.00033761,5.093e-05,0.0,0 STARLINK-5155,1 54170U 22141P   23297.32072017  .00005093  00000-0  33761-3 0  9992,2 54170  53.2171 297.9416 0001414  88.3402 271.7752 15.08866242 54913,6917.8,95.436,540.643,538.687,0.0
54170.0,STARLINK-5155,PAYLOAD,2023-10-25 07:32:38,15.08832148,0.0001532,53.217,293.483,82.0249,278.0917,-3.7972e-05,-8.92e-06,0.0,0 STARLINK-5155,1 54170U 22141P   23298.31433731 -.00000892  00000-0 -37972-4 0  9999,2 54170  53.2170 293.4830 0001532  82.0249 278.0917 15.08832148 55051,6917.904,95.438,540.829,538.71,0.0
54170.0,STARLINK-5155,PAYLOAD,2023-10-26 08:58:48,15.08847724,0.0001598,53.2158,288.7249,83.191,276.9264,0.00054485,8.396e-05,0.0,0 STARLINK-5155,1 54170U 22141P   23299.37417418  .00008396  00000-0  54485-3 0  9992,2 54170  53.2158 288.7249 0001598  83.1910 276.9264 15.08847724 55213,6917.857,95.437,540.827,538.616,0.0
54170.0,STARLINK-5155,PAYLOAD,2023-10-26 16:55:44,15.08846312,0.0001646,53.2153,287.2372,79.781,280.3367,0.00060251,9.316e-05,0.0,0 STARLINK-5155,1 54170U 22141P   23299.70537671  .00009316  00000-0  60251-3 0  9994,2 54170  53.2153 287.2372 0001646  79.7810 280.3367 15.08846312 55274,6917.861,95.437,540.865,538.587,0.0
54170.0,STARLINK-5155,PAYLOAD,2023-10-27 04:03:26,15.08849293,0.0001722,53.2157,285.1555,81.9872,278.1315,0.00047299,7.25e-05,0.0,0 STARLINK-5155,1 54170U 22141P   23300.16905581  .00007250  00000-0  47299-3 0  9998,2 54170  53.2157 285.1555 0001722  81.9872 278.1315 15.08849293 55332,6917.852,95.437,540.908,538.526,0.0
54170.0,STARLINK-5155,PAYLOAD,2023-10-27 05:38:49,15.0885463,0.0001888,53.2161,284.8559,90.3361,269.7848,0.00053219,8.195e-05,0.0,0 STARLINK-5155,1 54170U 22141P   23300.23529394  .00008195  00000-0  53219-3 0  9998,2 54170  53.2161 284.8559 0001888  90.3361 269.7848 15.08854630 55357,6917.836,95.437,541.007,538.395,0.0
54170.0,STARLINK-5155,PAYLOAD,2023-10-27 23:08:04,15.08840535,0.000178,53.2159,281.5852,86.4623,273.6572,0.00013487,1.859e-05,0.0,0 STARLINK-5155,1 54170U 22141P   23300.96393762  .00001859  00000-0  13487-3 0  9999,2 54170  53.2159 281.5852 0001780  86.4623 273.6572 15.08840535 55450,6917.879,95.438,540.975,538.512,0.0
54170.0,STARLINK-5155,PAYLOAD,2023-10-28 08:40:23,15.08838472,0.0001735,53.2164,279.8008,97.1276,262.9913,7.4206e-05,8.93e-06,0.0,0 STARLINK-5155,1 54170U 22141P   23301.36137860  .00000893  00000-0  74206-4 0  9993,2 54170  53.2164 279.8008 0001735  97.1276 262.9913 15.08838472 55527,6917.885,95.438,540.95,538.55,0.0
54170.0,STARLINK-5155,PAYLOAD,2023-10-29 05:20:23,15.08848186,0.00017,53.2167,275.9361,95.3339,264.7847,0.00029664,4.437e-05,0.0,0 STARLINK-5155,1 54170U 22141P   23302.22249952  .00004437  00000-0  29664-3 0  9990,2 54170  53.2167 275.9361 0001700  95.3339 264.7847 15.08848186 55643,6917.855,95.437,540.896,538.544,0.0
54170.0,STARLINK-5155,PAYLOAD,2023-10-29 22:49:38,15.0883743,0.0001654,53.2169,272.6646,97.0414,263.0766,0.00017044,2.425e-05,0.0,0 STARLINK-5155,1 54170U 22141P   23302.95114525  .00002425  00000-0  17044-3 0  9991,2 54170  53.2169 272.6646 0001654  97.0414 263.0766 15.08837430 55761,6917.888,95.438,540.897,538.609,0.0
54170.0,STARLINK-5155,PAYLOAD,2023-10-30 03:35:48,15.08836352,0.0001689,53.217,271.7735,99.2789,260.8394,0.00013903,1.925e-05,0.0,0 STARLINK-5155,1 54170U 22141P   23303.14986587  .00001925  00000-0  13903-3 0  9992,2 54170  53.2170 271.7735 0001689  99.2789 260.8394 15.08836352 55785,6917.892,95.438,540.925,538.588,0.0
54170.0,STARLINK-5155,PAYLOAD,2023-10-30 14:43:30,15.08837071,0.00016,53.2167,269.6915,88.907,271.2105,0.00010639,1.405e-05,0.0,0 STARLINK-5155,1 54170U 22141P   23303.61354670  .00001405  00000-0  10639-3 0  9992,2 54170  53.2167 269.6915 0001600  88.9070 271.2105 15.08837071 55862,6917.889,95.438,540.861,538.647,0.0
54170.0,STARLINK-5155,PAYLOAD,2023-10-31 05:01:58,15.08839396,0.000172,53.2178,267.0194,97.6475,262.4713,3.6126e-05,2.87e-06,0.0,0 STARLINK-5155,1 54170U 22141P   23304.20970801  .00000287  00000-0  36126-4 0  9995,2 54170  53.2178 267.0194 0001720  97.6475 262.4713 15.08839396 55942,6917.882,95.438,540.937,538.557,0.0
54170.0,STARLINK-5155,PAYLOAD,2023-10-31 14:34:17,15.08840848,0.0001508,53.2165,265.2315,92.0365,268.08,6.7472e-05,7.86e-06,0.0,0 STARLINK-5155,1 54170U 22141P   23304.60714743  .00000786  00000-0  67472-4 0  9992,2 54170  53.2165 265.2315 0001508  92.0365 268.0800 15.08840848 56016,6917.878,95.438,540.786,538.7,0.0
54170.0,STARLINK-5155,PAYLOAD,2023-11-01 06:28:08,15.08852107,0.0001619,53.2174,262.2578,85.6173,274.5004,0.00029094,4.347e-05,0.0,0 STARLINK-5155,1 54170U 22141P   23305.26954375  .00004347  00000-0  29094-3 0  9996,2 54170  53.2174 262.2578 0001619  85.6173 274.5004 15.08852107 56101,6917.843,95.437,540.828,538.588,0.0
54170.0,STARLINK-5155,PAYLOAD,2023-11-01 14:25:04,15.08842711,0.0001691,53.2182,260.7722,82.4162,277.7023,0.00011966,1.617e-05,0.0,0 STARLINK-5155,1 54170U 22141P   23305.60074780  .00001617  00000-0  11966-3 0  9993,2 54170  53.2182 260.7722 0001691  82.4162 277.7023 15.08842711 56169,6917.872,95.437,540.907,538.567,0.0
54170.0,STARLINK-5155,PAYLOAD,2023-11-01 20:46:37,15.08840702,0.000184,53.2177,259.5844,80.7441,279.3759,0.00011266,1.505e-05,0.0,0 STARLINK-5155,1 54170U 22141P   23305.86570954  .00001505  00000-0  11266-3 0  9994,2 54170  53.2177 259.5844 0001840  80.7441 279.3759 15.08840702 56196,6917.878,95.438,541.016,538.47,0.0
54170.0,STARLINK-5155,PAYLOAD,2023-11-02 14:15:51,15.08843775,0.0001631,53.2174,256.3119,91.3564,268.7615,5.381e-05,5.69e-06,0.0,0 STARLINK-5155,1 54170U 22141P   23306.59434775  .00000569  00000-0  53810-4 0  9996,2 54170  53.2174 256.3119 0001631  91.3564 268.7615 15.08843775 56315,6917.869,95.437,540.862,538.606,0.0
54170.0,STARLINK-5155,PAYLOAD,2023-11-03 02:58:56,15.08847308,0.0001615,53.2171,253.9307,101.7252,258.3921,3.3184e-05,2.4e-06,0.0,0 STARLINK-5155,1 54170U 22141P   23307.12426546  .00000240  00000-0  33184-4 0  9991,2 54170  53.2171 253.9307 0001615 101.7252 258.3921 15.08847308 56384,6917.858,95.437,540.84,538.606,0.0
54170.0,STARLINK-5155,PAYLOAD,2023-11-03 06:09:42,15.08850818,0.0001733,53.2178,253.3346,104.9925,255.1259,9.9094e-05,1.29e-05,0.0,0 STARLINK-5155,1 54170U 22141P   23307.25674351  .00001290  00000-0  99094-4 0  9992,2 54170  53.2178 253.3346 0001733 104.9925 255.1259 15.08850818 56414,6917.847,95.437,540.911,538.513,0.0
54170.0,STARLINK-5155,PAYLOAD,2023-11-04 02:49:44,15.08839668,0.0001427,53.2184,249.4719,98.8671,261.2483,0.00021163,3.082e-05,0.0,0 STARLINK-5155,1 54170U 22141P   23308.11787187  .00003082  00000-0  21163-3 0  9992,2 54170  53.2184 249.4719 0001427  98.8671 261.2483 15.08839668 56530,6917.881,95.438,540.734,538.759,0.0
54170.0,STARLINK-5155,PAYLOAD,2023-11-04 06:00:30,15.08847064,0.0001641,53.2158,248.8754,99.081,261.0368,0.0002347,3.45e-05,0.0,0 STARLINK-5155,1 54170U 22141P   23308.25034796  .00003450  00000-0  23470-3 0  9990,2 54170  53.2158 248.8754 0001641  99.0810 261.0368 15.08847064 56561,6917.859,95.437,540.859,538.589,0.0
54170.0,STARLINK-5155,PAYLOAD,2023-11-05 02:40:31,15.08844798,0.0001578,53.2186,245.0112,92.1498,267.9675,0.00020001,2.897e-05,0.0,0 STARLINK-5155,1 54170U 22141P   23309.11147040  .00002897  00000-0  20001-3 0  9994,2 54170  53.2186 245.0112 0001578  92.1498 267.9675 15.08844798 56684,6917.866,95.437,540.822,538.639,0.0
54170.0,STARLINK-5155,PAYLOAD,2023-11-06 02:31:15,15.08906601,0.0001351,53.217,240.5508,92.7997,267.315,0.001409,0.00022248,0.0,0 STARLINK-5155,1 54170U 22141P   23310.10504292  .00022248  00000-0  14090-2 0  9993,2 54170  53.2170 240.5508 0001351  92.7997 267.3150 15.08906601 56836,6917.677,95.433,540.476,538.607,0.0
54170.0,STARLINK-5155,PAYLOAD,2023-11-06 12:03:33,15.08884305,0.0002138,53.2173,238.7668,78.495,281.6282,0.00059037,9.131e-05,0.0,0 STARLINK-5155,1 54170U 22141P   23310.50247332  .00009131  00000-0  59037-3 0  9993,2 54170  53.2173 238.7668 0002138  78.4950 281.6282 15.08884305 56896,6917.745,95.435,541.089,538.131,0.0
54170.0,STARLINK-5155,PAYLOAD,2023-11-07 02:22:05,15.08760194,0.0001254,53.2162,236.0919,92.249,267.8646,-0.0022289,-0.00035509,0.0,0 STARLINK-5155,1 54170U 22141P   23311.09867728 -.00035509  00000-0 -22289-2 0  9993,2 54170  53.2162 236.0919 0001254  92.2490 267.8646 15.08760194 56984,6918.124,95.443,540.857,539.122,0.0
